{"type": "FeatureCollection", "features": [{"type": "Feature", "properties": {"norad_id": 66319, "name": "STARLINK-35442", "group": "last-30-days", "lat": -21.311112183143074, "lon": -4.9823573246682304, "alt_km": 445.0195629973414, "timestamp": "2025-12-06T20:37:54.810665+00:00", "meta": {"OBJECT_NAME": "STARLINK-35442", "OBJECT_ID": "2025-253A", "EPOCH": "2025-12-06T11:26:10.056192", "MEAN_MOTION": 15.40722032, "ECCENTRICITY": 0.00021616, "INCLINATION": 43.0027, "RA_OF_ASC_NODE": 21.9722, "ARG_OF_PERICENTER": 271.0383, "MEAN_ANOMALY": 89.0226, "EPHEMERIS_TYPE": 0, "CLASSIFICATION_TYPE": "U", "NORAD_CAT_ID": 66319, "ELEMENT_SET_NO": 999, "REV_AT_EPOCH": 595, "BSTAR": 0.0017399381, "MEAN_MOTION_DOT": 0.00073133, "MEAN_MOTION_DDOT": 0}, "tle": {"line1": "1 66319U 25253A   25340.47650528  .00073133  00000+0  17399-2 0  9990", "line2": "2 66319  43.0027  21.9722 0002161 271.0383  89.0226 15.40722032  5952"}}, "geometry": {"type": "Point", "coordinates": [-4.9823573246682304, -21.311112183143074]}}, {"type": "Feature", "properties": {"norad_id": 66320, "name": "STARLINK-34616", "group": "last-30-days", "lat": 24.80407266795497, "lon": 169.61022241942194, "alt_km": 440.88443567879494, "timestamp": "2025-12-06T20:37:54.810720+00:00", "meta": {"OBJECT_NAME": "STARLINK-34616", "OBJECT_ID": "2025-253B", "EPOCH": "2025-12-06T16:00:03.000096", "MEAN_MOTION": 15.40694294, "ECCENTRICITY": 0.00013593, "INCLINATION": 43.0007, "RA_OF_ASC_NODE": 20.4539, "ARG_OF_PERICENTER": 282.1748, "MEAN_ANOMALY": 228.2676, "EPHEMERIS_TYPE": 0, "CLASSIFICATION_TYPE": "U", "NORAD_CAT_ID": 66320, "ELEMENT_SET_NO": 999, "REV_AT_EPOCH": 600, "BSTAR": -0.00059985201, "MEAN_MOTION_DOT": -0.00025273, "MEAN_MOTION_DDOT": 0}, "tle": {"line1": "1 66320U 25253B   25340.66670139 -.00025273  00000+0 -59985-3 0  9995", "line2": "2 66320  43.0007  20.4539 0001359 282.1748 228.2676 15.40694294  6009"}}, "geometry": {"type": "Point", "coordinates": [169.61022241942194, 24.80407266795497]}}, {"type": "Feature", "properties": {"norad_id": 66321, "name": "STARLINK-34615", "group": "last-30-days", "lat": -12.071049192721642, "lon": -148.40716109149713, "alt_km": 416.0653977077327, "timestamp": "2025-12-06T20:37:54.810766+00:00", "meta": {"OBJECT_NAME": "STARLINK-34615", "OBJECT_ID": "2025-253C", "EPOCH": "2025-12-06T16:00:03.000096", "MEAN_MOTION": 15.50618765, "ECCENTRICITY": 0.00011383, "INCLINATION": 43.0003, "RA_OF_ASC_NODE": 19.4547, "ARG_OF_PERICENTER": 273.8807, "MEAN_ANOMALY": 285.4843, "EPHEMERIS_TYPE": 0, "CLASSIFICATION_TYPE": "U", "NORAD_CAT_ID": 66321, "ELEMENT_SET_NO": 999, "REV_AT_EPOCH": 600, "BSTAR": -0.0018213606, "MEAN_MOTION_DOT": -0.00105906, "MEAN_MOTION_DDOT": 0}, "tle": {"line1": "1 66321U 25253C   25340.66670139 -.00105906  00000+0 -18214-2 0  9997", "line2": "2 66321  43.0003  19.4547 0001138 273.8807 285.4843 15.50618765  6002"}}, "geometry": {"type": "Point", "coordinates": [-148.40716109149713, -12.071049192721642]}}, {"type": "Feature", "properties": {"norad_id": 66322, "name": "STARLINK-35292", "group": "last-30-days", "lat": 3.4841297469169814, "lon": 23.418175620295862, "alt_km": 443.3841024602225, "timestamp": "2025-12-06T20:37:54.810782+00:00", "meta": {"OBJECT_NAME": "STARLINK-35292", "OBJECT_ID": "2025-253D", "EPOCH": "2025-12-06T11:16:29.627904", "MEAN_MOTION": 15.40734083, "ECCENTRICITY": 0.00013487, "INCLINATION": 43.0008, "RA_OF_ASC_NODE": 21.9195, "ARG_OF_PERICENTER": 250.9485, "MEAN_ANOMALY": 109.1225, "EPHEMERIS_TYPE": 0, "CLASSIFICATION_TYPE": "U", "NORAD_CAT_ID": 66322, "ELEMENT_SET_NO": 999, "REV_AT_EPOCH": 595, "BSTAR": 0.0020782225, "MEAN_MOTION_DOT": 0.00087611, "MEAN_MOTION_DDOT": 0}, "tle": {"line1": "1 66322U 25253D   25340.46978736  .00087611  00000+0  20782-2 0  9993", "line2": "2 66322  43.0008  21.9195 0001348 250.9485 109.1225 15.40734083  5956"}}, "geometry": {"type": "Point", "coordinates": [23.418175620295862, 3.4841297469169814]}}, {"type": "Feature", "properties": {"norad_id": 66323, "name": "STARLINK-35309", "group": "last-30-days", "lat": -38.13049648025084, "lon": -103.51790828870224, "alt_km": 416.6423819978663, "timestamp": "2025-12-06T20:37:54.810795+00:00", "meta": {"OBJECT_NAME": "STARLINK-35309", "OBJECT_ID": "2025-253E", "EPOCH": "2025-12-06T10:18:19.291680", "MEAN_MOTION": 15.50621482, "ECCENTRICITY": 0.0002349, "INCLINATION": 42.9992, "RA_OF_ASC_NODE": 21.6062, "ARG_OF_PERICENTER": 287.2003, "MEAN_ANOMALY": 72.86, "EPHEMERIS_TYPE": 0, "CLASSIFICATION_TYPE": "U", "NORAD_CAT_ID": 66323, "ELEMENT_SET_NO": 999, "REV_AT_EPOCH": 595, "BSTAR": 0.0020328272, "MEAN_MOTION_DOT": 0.00120962, "MEAN_MOTION_DDOT": 0}, "tle": {"line1": "1 66323U 25253E   25340.42938995  .00120962  00000+0  20328-2 0  9996", "line2": "2 66323  42.9992  21.6062 0002349 287.2003  72.8600 15.50621482  5950"}}, "geometry": {"type": "Point", "coordinates": [-103.51790828870224, -38.13049648025084]}}, {"type": "Feature", "properties": {"norad_id": 66324, "name": "STARLINK-35506", "group": "last-30-days", "lat": -35.17884727909992, "lon": -111.75069282491589, "alt_km": 417.454915735193, "timestamp": "2025-12-06T20:37:54.810808+00:00", "meta": {"OBJECT_NAME": "STARLINK-35506", "OBJECT_ID": "2025-253F", "EPOCH": "2025-12-04T04:13:46.495776", "MEAN_MOTION": 15.50596968, "ECCENTRICITY": 8.735e-05, "INCLINATION": 43.0012, "RA_OF_ASC_NODE": 34.803, "ARG_OF_PERICENTER": 273.2034, "MEAN_ANOMALY": 86.8726, "EPHEMERIS_TYPE": 0, "CLASSIFICATION_TYPE": "U", "NORAD_CAT_ID": 66324, "ELEMENT_SET_NO": 999, "REV_AT_EPOCH": 560, "BSTAR": 0.0002009229, "MEAN_MOTION_DOT": 0.0001147, "MEAN_MOTION_DDOT": 0}, "tle": {"line1": "1 66324U 25253F   25338.17623259  .00011470  00000+0  20092-3 0  9992", "line2": "2 66324  43.0012  34.8030 0000873 273.2034  86.8726 15.50596968  5602"}}, "geometry": {"type": "Point", "coordinates": [-111.75069282491589, -35.17884727909992]}}, {"type": "Feature", "properties": {"norad_id": 66325, "name": "STARLINK-35504", "group": "last-30-days", "lat": 42.941891469243075, "lon": 112.44263919632154, "alt_km": 438.13369814870657, "timestamp": "2025-12-06T20:37:54.810820+00:00", "meta": {"OBJECT_NAME": "STARLINK-35504", "OBJECT_ID": "2025-253G", "EPOCH": "2025-12-06T14:00:01.999872", "MEAN_MOTION": 15.40643038, "ECCENTRICITY": 0.00013557, "INCLINATION": 43.0008, "RA_OF_ASC_NODE": 21.0563, "ARG_OF_PERICENTER": 262.1929, "MEAN_ANOMALY": 95.6576, "EPHEMERIS_TYPE": 0, "CLASSIFICATION_TYPE": "U", "NORAD_CAT_ID": 66325, "ELEMENT_SET_NO": 999, "REV_AT_EPOCH": 594, "BSTAR": 0.0025832489, "MEAN_MOTION_DOT": 0.00108952, "MEAN_MOTION_DDOT": 0}, "tle": {"line1": "1 66325U 25253G   25340.58335648  .00108952  00000+0  25832-2 0  9991", "line2": "2 66325  43.0008  21.0563 0001355 262.1929  95.6576 15.40643038  5941"}}, "geometry": {"type": "Point", "coordinates": [112.44263919632154, 42.941891469243075]}}, {"type": "Feature", "properties": {"norad_id": 66326, "name": "STARLINK-35479", "group": "last-30-days", "lat": -39.4130549531677, "lon": -99.0551308836825, "alt_km": 416.3651303696706, "timestamp": "2025-12-06T20:37:54.810832+00:00", "meta": {"OBJECT_NAME": "STARLINK-35479", "OBJECT_ID": "2025-253H", "EPOCH": "2025-12-04T15:00:38.013408", "MEAN_MOTION": 15.50615042, "ECCENTRICITY": 0.0001415, "INCLINATION": 43.0005, "RA_OF_ASC_NODE": 32.1514, "ARG_OF_PERICENTER": 287.7439, "MEAN_ANOMALY": 72.3267, "EPHEMERIS_TYPE": 0, "CLASSIFICATION_TYPE": "U", "NORAD_CAT_ID": 66326, "ELEMENT_SET_NO": 999, "REV_AT_EPOCH": 567, "BSTAR": 0.001591, "MEAN_MOTION_DOT": 0.00094247, "MEAN_MOTION_DDOT": 0}, "tle": {"line1": "1 66326U 25253H   25338.62543997  .00094247  00000+0  15910-2 0  9999", "line2": "2 66326  43.0005  32.1514 0001415 287.7439  72.3267 15.50615042  5678"}}, "geometry": {"type": "Point", "coordinates": [-99.0551308836825, -39.4130549531677]}}, {"type": "Feature", "properties": {"norad_id": 66327, "name": "STARLINK-35507", "group": "last-30-days", "lat": -34.0520170061122, "lon": -114.3943078556877, "alt_km": 417.5188648873709, "timestamp": "2025-12-06T20:37:54.810847+00:00", "meta": {"OBJECT_NAME": "STARLINK-35507", "OBJECT_ID": "2025-253J", "EPOCH": "2025-12-06T14:00:01.999872", "MEAN_MOTION": 15.50604811, "ECCENTRICITY": 0.00013298, "INCLINATION": 43.0006, "RA_OF_ASC_NODE": 20.7332, "ARG_OF_PERICENTER": 286.7721, "MEAN_ANOMALY": 204.1985, "EPHEMERIS_TYPE": 0, "CLASSIFICATION_TYPE": "U", "NORAD_CAT_ID": 66327, "ELEMENT_SET_NO": 999, "REV_AT_EPOCH": 603, "BSTAR": -0.001673365, "MEAN_MOTION_DOT": -0.00097387, "MEAN_MOTION_DDOT": 0}, "tle": {"line1": "1 66327U 25253J   25340.58335648 -.00097387  00000+0 -16734-2 0  9995", "line2": "2 66327  43.0006  20.7332 0001329 286.7721 204.1985 15.50604811  6033"}}, "geometry": {"type": "Point", "coordinates": [-114.3943078556877, -34.0520170061122]}}, {"type": "Feature", "properties": {"norad_id": 66328, "name": "STARLINK-35460", "group": "last-30-days", "lat": 41.26883673168111, "lon": 129.08947239172866, "alt_km": 438.3590704428725, "timestamp": "2025-12-06T20:37:54.810861+00:00", "meta": {"OBJECT_NAME": "STARLINK-35460", "OBJECT_ID": "2025-253K", "EPOCH": "2025-12-06T14:00:01.999872", "MEAN_MOTION": 15.40662944, "ECCENTRICITY": 0.0001354, "INCLINATION": 43.0007, "RA_OF_ASC_NODE": 21.0229, "ARG_OF_PERICENTER": 276.6826, "MEAN_ANOMALY": 93.6015, "EPHEMERIS_TYPE": 0, "CLASSIFICATION_TYPE": "U", "NORAD_CAT_ID": 66328, "ELEMENT_SET_NO": 999, "REV_AT_EPOCH": 603, "BSTAR": 0.0022113611, "MEAN_MOTION_DOT": 0.0009309, "MEAN_MOTION_DDOT": 0}, "tle": {"line1": "1 66328U 25253K   25340.58335648  .00093090  00000+0  22114-2 0  9990", "line2": "2 66328  43.0007  21.0229 0001354 276.6826  93.6015 15.40662944  6031"}}, "geometry": {"type": "Point", "coordinates": [129.08947239172866, 41.26883673168111]}}]}